FENGYUN 1C DEB          
1 32194U 99025CUQ 17345.57601622  .00001074  00000-0  28305-3 0  9996
2 32194  99.0888 267.0348 0078439 143.5835 217.0729 14.49518801294074
